start=new Date('2022-02-16T00:00:00.000Z').valueOf();
sats=[{"MEAN_ELEMENT_THEORY":"SGP4","MEAN_ANOMALY":"294.4721","LAUNCH_DATE":"2021-02-04","ARG_OF_PERICENTER":"65.6406","EPOCH":"2022-02-15T19:57:44.052768","MEAN_MOTION_DDOT":"0.0000000000000","ECCENTRICITY":"0.00013200","DECAY_DATE":null,"PERIOD":"95.592","INCLINATION":"53.0552","COUNTRY_CODE":"US","SEMIMAJOR_AXIS":"6925.347","FILE":"3301463","CLASSIFICATION_TYPE":"U","SITE":"AFETR","PERIAPSIS":"546.298","OBJECT_NAME":"STARLINK-1938","BSTAR":"0.00009204600000","MEAN_MOTION":"15.06400386","ELEMENT_SET_NO":"999","NORAD_CAT_ID":"47551","TLE_LINE2":"2 47551  53.0552 198.4265 0001320  65.6406 294.4721 15.06400386 57297","TLE_LINE1":"1 47551U 21009D   22046.83175987  .00001090  00000-0  92046-4 0  9991","RA_OF_ASC_NODE":"198.4265","RCS_SIZE":"LARGE","REF_FRAME":"TEME","EPHEMERIS_TYPE":"0","MEAN_MOTION_DOT":"0.00001090","REV_AT_EPOCH":"5729","OBJECT_ID":"2021-009D","APOAPSIS":"548.127","GP_ID":"196059065","CENTER_NAME":"EARTH","TIME_SYSTEM":"UTC","OBJECT_TYPE":"PAYLOAD"},{"REF_FRAME":"TEME","EPHEMERIS_TYPE":"0","MEAN_MOTION_DOT":"0.00001023","REV_AT_EPOCH":"5743","OBJECT_ID":"2021-009E","CENTER_NAME":"EARTH","GP_ID":"196059316","APOAPSIS":"548.176","OBJECT_TYPE":"PAYLOAD","TIME_SYSTEM":"UTC","NORAD_CAT_ID":"47552","TLE_LINE2":"2 47552  53.0531 188.4094 0001359  68.6446 291.4688 15.06392975 57432","TLE_LINE1":"1 47552U 21009E   22046.83636565  .00001023  00000-0  87607-4 0  9999","RA_OF_ASC_NODE":"188.4094","RCS_SIZE":"LARGE","FILE":"3301463","CLASSIFICATION_TYPE":"U","SITE":"AFETR","PERIAPSIS":"546.294","BSTAR":"0.00008760700000","OBJECT_NAME":"STARLINK-1940","MEAN_MOTION":"15.06392975","ELEMENT_SET_NO":"999","MEAN_ELEMENT_THEORY":"SGP4","LAUNCH_DATE":"2021-02-04","MEAN_ANOMALY":"291.4688","EPOCH":"2022-02-15T20:04:21.992160","ARG_OF_PERICENTER":"68.6446","MEAN_MOTION_DDOT":"0.0000000000000","PERIOD":"95.593","DECAY_DATE":null,"ECCENTRICITY":"0.00013590","COUNTRY_CODE":"US","SEMIMAJOR_AXIS":"6925.370","INCLINATION":"53.0531"},{"RCS_SIZE":"LARGE","TLE_LINE1":"1 47553U 21009F   22046.70220713  .00100837  00000-0  11483-2 0  9990","RA_OF_ASC_NODE":"171.5254","TLE_LINE2":"2 47553  53.0532 171.5254 0001915  30.8675 329.2450 15.61491202 57664","NORAD_CAT_ID":"47553","OBJECT_TYPE":"PAYLOAD","TIME_SYSTEM":"UTC","GP_ID":"196058562","APOAPSIS":"384.646","CENTER_NAME":"EARTH","OBJECT_ID":"2021-009F","REV_AT_EPOCH":"5766","MEAN_MOTION_DOT":"0.00100837","EPHEMERIS_TYPE":"0","REF_FRAME":"TEME","COUNTRY_CODE":"US","SEMIMAJOR_AXIS":"6761.486","INCLINATION":"53.0532","ECCENTRICITY":"0.00019150","DECAY_DATE":null,"PERIOD":"92.220","MEAN_MOTION_DDOT":"0.0000000000000","EPOCH":"2022-02-15T16:51:10.696032","ARG_OF_PERICENTER":"30.8675","LAUNCH_DATE":"2021-02-04","MEAN_ANOMALY":"329.2450","MEAN_ELEMENT_THEORY":"SGP4","ELEMENT_SET_NO":"999","MEAN_MOTION":"15.61491202","BSTAR":"0.00114830000000","OBJECT_NAME":"STARLINK-1951","PERIAPSIS":"382.056","SITE":"AFETR","CLASSIFICATION_TYPE":"U","FILE":"3301463"},{"NORAD_CAT_ID":"47554","TLE_LINE2":"2 47554  53.0556 208.6848 0001323  90.6242 269.4898 15.06394471 57142","RA_OF_ASC_NODE":"208.6848","TLE_LINE1":"1 47554U 21009G   22046.77554523  .00000019  00000-0  20195-4 0  9990","RCS_SIZE":"LARGE","REF_FRAME":"TEME","EPHEMERIS_TYPE":"0","MEAN_MOTION_DOT":"0.00000019","REV_AT_EPOCH":"5714","OBJECT_ID":"2021-009G","GP_ID":"196058814","APOAPSIS":"548.147","CENTER_NAME":"EARTH","OBJECT_TYPE":"PAYLOAD","TIME_SYSTEM":"UTC","MEAN_ELEMENT_THEORY":"SGP4","LAUNCH_DATE":"2021-02-04","MEAN_ANOMALY":"269.4898","EPOCH":"2022-02-15T18:36:47.107872","ARG_OF_PERICENTER":"90.6242","MEAN_MOTION_DDOT":"0.0000000000000","PERIOD":"95.592","DECAY_DATE":null,"ECCENTRICITY":"0.00013230","COUNTRY_CODE":"US","SEMIMAJOR_AXIS":"6925.366","INCLINATION":"53.0556","FILE":"3301463","CLASSIFICATION_TYPE":"U","SITE":"AFETR","PERIAPSIS":"546.314","BSTAR":"0.00002019500000","OBJECT_NAME":"STARLINK-1953","MEAN_MOTION":"15.06394471","ELEMENT_SET_NO":"999"},{"INCLINATION":"53.0533","COUNTRY_CODE":"US","SEMIMAJOR_AXIS":"6925.396","PERIOD":"95.593","DECAY_DATE":null,"ECCENTRICITY":"0.00014240","MEAN_MOTION_DDOT":"0.0000000000000","ARG_OF_PERICENTER":"79.4887","EPOCH":"2022-02-15T18:00:57.538080","LAUNCH_DATE":"2021-02-04","MEAN_ANOMALY":"280.6262","MEAN_ELEMENT_THEORY":"SGP4","ELEMENT_SET_NO":"999","MEAN_MOTION":"15.06384528","OBJECT_NAME":"STARLINK-1954","BSTAR":"0.00008843900000","PERIAPSIS":"546.275","SITE":"AFETR","CLASSIFICATION_TYPE":"U","FILE":"3301463","RCS_SIZE":"LARGE","TLE_LINE1":"1 47555U 21009H   22046.75066595  .00001036  00000-0  88439-4 0  9991","RA_OF_ASC_NODE":"198.7897","TLE_LINE2":"2 47555  53.0533 198.7897 0001424  79.4887 280.6262 15.06384528 57280","NORAD_CAT_ID":"47555","TIME_SYSTEM":"UTC","OBJECT_TYPE":"PAYLOAD","GP_ID":"196059565","CENTER_NAME":"EARTH","APOAPSIS":"548.247","OBJECT_ID":"2021-009H","REV_AT_EPOCH":"5728","MEAN_MOTION_DOT":"0.00001036","EPHEMERIS_TYPE":"0","REF_FRAME":"TEME"},{"CLASSIFICATION_TYPE":"U","FILE":"3301463","PERIAPSIS":"546.057","SITE":"AFETR","MEAN_MOTION":"15.06397400","OBJECT_NAME":"STARLINK-1955","BSTAR":"0.00003175300000","ELEMENT_SET_NO":"999","MEAN_ANOMALY":"288.9945","LAUNCH_DATE":"2021-02-04","MEAN_ELEMENT_THEORY":"SGP4","MEAN_MOTION_DDOT":"0.0000000000000","ARG_OF_PERICENTER":"71.1226","EPOCH":"2022-02-15T20:26:54.972096","DECAY_DATE":null,"ECCENTRICITY":"0.00016820","PERIOD":"95.592","INCLINATION":"53.0547","COUNTRY_CODE":"US","SEMIMAJOR_AXIS":"6925.357","REF_FRAME":"TEME","MEAN_MOTION_DOT":"0.00000191","EPHEMERIS_TYPE":"0","OBJECT_ID":"2021-009J","REV_AT_EPOCH":"5701","TIME_SYSTEM":"UTC","OBJECT_TYPE":"PAYLOAD","CENTER_NAME":"EARTH","GP_ID":"196059816","APOAPSIS":"548.386","TLE_LINE2":"2 47556  53.0547 218.3287 0001682  71.1226 288.9945 15.06397400 57013","NORAD_CAT_ID":"47556","RA_OF_ASC_NODE":"218.3287","TLE_LINE1":"1 47556U 21009J   22046.85202514  .00000191  00000-0  31753-4 0  9994","RCS_SIZE":"LARGE"},{"SITE":"AFETR","PERIAPSIS":"546.092","FILE":"3301463","CLASSIFICATION_TYPE":"U","ELEMENT_SET_NO":"999","OBJECT_NAME":"STARLINK-1956","BSTAR":"0.00004285300000","MEAN_MOTION":"15.06391837","ARG_OF_PERICENTER":"66.0489","EPOCH":"2022-02-15T19:33:50.948064","MEAN_MOTION_DDOT":"0.0000000000000","MEAN_ELEMENT_THEORY":"SGP4","LAUNCH_DATE":"2021-02-04","MEAN_ANOMALY":"294.0673","COUNTRY_CODE":"US","INCLINATION":"53.0526","SEMIMAJOR_AXIS":"6925.374","ECCENTRICITY":"0.00016550","DECAY_DATE":null,"PERIOD":"95.593","EPHEMERIS_TYPE":"0","MEAN_MOTION_DOT":"0.00000357","REF_FRAME":"TEME","GP_ID":"196058063","APOAPSIS":"548.385","CENTER_NAME":"EARTH","TIME_SYSTEM":"UTC","OBJECT_TYPE":"PAYLOAD","REV_AT_EPOCH":"5701","OBJECT_ID":"2021-009K","TLE_LINE1":"1 47557U 21009K   22046.81517301  .00000357  00000-0  42853-4 0  9991","RA_OF_ASC_NODE":"218.5080","NORAD_CAT_ID":"47557","TLE_LINE2":"2 47557  53.0526 218.5080 0001655  66.0489 294.0673 15.06391837 57012","RCS_SIZE":"LARGE"},{"SITE":"AFETR","PERIAPSIS":"546.113","FILE":"3301463","CLASSIFICATION_TYPE":"U","ELEMENT_SET_NO":"999","BSTAR":"-0.00001365900000","OBJECT_NAME":"STARLINK-1957","MEAN_MOTION":"15.06401048","EPOCH":"2022-02-15T20:41:30.229152","ARG_OF_PERICENTER":"67.9159","MEAN_MOTION_DDOT":"0.0000000000000","MEAN_ELEMENT_THEORY":"SGP4","MEAN_ANOMALY":"292.1999","LAUNCH_DATE":"2021-02-04","INCLINATION":"53.0560","COUNTRY_CODE":"US","SEMIMAJOR_AXIS":"6925.345","DECAY_DATE":null,"PERIOD":"95.592","ECCENTRICITY":"0.00015850","EPHEMERIS_TYPE":"0","MEAN_MOTION_DOT":"-0.00000485","REF_FRAME":"TEME","GP_ID":"196058315","CENTER_NAME":"EARTH","APOAPSIS":"548.308","OBJECT_TYPE":"PAYLOAD","TIME_SYSTEM":"UTC","REV_AT_EPOCH":"5743","OBJECT_ID":"2021-009L","TLE_LINE1":"1 47558U 21009L   22046.86215543 -.00000485  00000-0 -13659-4 0  9996","RA_OF_ASC_NODE":"188.2890","NORAD_CAT_ID":"47558","TLE_LINE2":"2 47558  53.0560 188.2890 0001585  67.9159 292.1999 15.06401048 57431","RCS_SIZE":"LARGE"},{"COUNTRY_CODE":"US","SEMIMAJOR_AXIS":"6925.348","INCLINATION":"53.0540","DECAY_DATE":null,"ECCENTRICITY":"0.00013570","PERIOD":"95.592","MEAN_MOTION_DDOT":"0.0000000000000","EPOCH":"2022-02-15T19:49:45.579072","ARG_OF_PERICENTER":"63.7954","LAUNCH_DATE":"2021-02-04","MEAN_ANOMALY":"296.3174","MEAN_ELEMENT_THEORY":"SGP4","ELEMENT_SET_NO":"999","MEAN_MOTION":"15.06400073","BSTAR":"0.00002839800000","OBJECT_NAME":"STARLINK-1958","PERIAPSIS":"546.274","SITE":"AFETR","CLASSIFICATION_TYPE":"U","FILE":"3301463","RCS_SIZE":"LARGE","RA_OF_ASC_NODE":"178.4516","TLE_LINE1":"1 47559U 21009M   22046.82622198  .00000142  00000-0  28398-4 0  9995","TLE_LINE2":"2 47559  53.0540 178.4516 0001357  63.7954 296.3174 15.06400073 57573","NORAD_CAT_ID":"47559","OBJECT_TYPE":"PAYLOAD","TIME_SYSTEM":"UTC","APOAPSIS":"548.153","GP_ID":"196059066","CENTER_NAME":"EARTH","OBJECT_ID":"2021-009M","REV_AT_EPOCH":"5757","MEAN_MOTION_DOT":"0.00000142","EPHEMERIS_TYPE":"0","REF_FRAME":"TEME"},{"RCS_SIZE":"LARGE","RA_OF_ASC_NODE":"178.4947","TLE_LINE1":"1 47560U 21009N   22046.81885544  .00001464  00000-0  11719-3 0  9998","NORAD_CAT_ID":"47560","TLE_LINE2":"2 47560  53.0541 178.4947 0001468  70.4266 289.6881 15.06393785 57579","CENTER_NAME":"EARTH","GP_ID":"196059317","APOAPSIS":"548.249","OBJECT_TYPE":"PAYLOAD","TIME_SYSTEM":"UTC","REV_AT_EPOCH":"5757","OBJECT_ID":"2021-009N","EPHEMERIS_TYPE":"0","MEAN_MOTION_DOT":"0.00001464","REF_FRAME":"TEME","COUNTRY_CODE":"US","INCLINATION":"53.0541","SEMIMAJOR_AXIS":"6925.368","DECAY_DATE":null,"ECCENTRICITY":"0.00014680","PERIOD":"95.593","EPOCH":"2022-02-15T19:39:09.110016","ARG_OF_PERICENTER":"70.4266","MEAN_MOTION_DDOT":"0.0000000000000","MEAN_ELEMENT_THEORY":"SGP4","LAUNCH_DATE":"2021-02-04","MEAN_ANOMALY":"289.6881","ELEMENT_SET_NO":"999","BSTAR":"0.00011719000000","OBJECT_NAME":"STARLINK-1959","MEAN_MOTION":"15.06393785","SITE":"AFETR","PERIAPSIS":"546.216","FILE":"3301463","CLASSIFICATION_TYPE":"U"}];
